
STARLINK-31258          
1 58829U 24017D   24343.93115329  .00003154  00000+0  10495-3 0  9999
2 58829  53.1603 167.9332 0001320  91.7433 268.3721 15.34241357 50184
STARLINK-31253          
1 58830U 24017E   24344.90364810  .00002793  00000+0  94249-4 0  9998
2 58830  53.1599 163.3388 0001488  96.6499 263.4673 15.34228561 50333
STARLINK-31232          
1 58831U 24017F   24344.76904022  .00000776  00000+0  34297-4 0  9994
2 58831  53.1598 163.9196 0001429  97.3401 262.7763 15.34207712 50317
STARLINK-31263          
1 58832U 24017G   24344.89899234  .00000950  00000+0  39465-4 0  9993
2 58832  53.1621 163.3096 0001402 102.7804 257.3355 15.34212090 50443
STARLINK-31175          
1 58833U 24017H   24345.25001157 -.01063193  34222-3 -31150-2 0  9993
2 58833  53.1087 125.8659 0000253  59.4741 224.8636 15.92079898 50902
STARLINK-31171          
1 58834U 24017J   24344.91156300  .00059488  00000+0  12710-2 0  9990
2 58834  53.1599 161.2605 0005673 247.4960 112.5447 15.44288338 50360
STARLINK-31246          
1 58835U 24017K   24344.49881698  .00000211  00000+0  17460-4 0  9998
2 58835  53.1599 165.0803 0001187  85.2620 274.8518 15.34212551 50274
STARLINK-31251          
1 58836U 24017L   24344.49448823 -.00001407  00000+0 -30717-4 0  9998
2 58836  53.1591 165.0509 0001265  86.0812 274.0335 15.34205060 50400
STARLINK-31172          
1 58837U 24017M   24344.91667824  .00178303  00000+0  20210-2 0  9993
2 58837  53.1534 152.2725 0007255 202.4588  13.7441 15.61283540 50501
STARLINK-31249          
1 58838U 24017N   24344.23357504  .00000797  00000+0  34904-4 0  9998
2 58838  53.1594 166.2666 0001285  99.2773 260.8374 15.34224743 50232
STARLINK-31250          
1 58839U 24017P   24344.48982413  .00000104  00000+0  14284-4 0  9990
2 58839  53.1585 165.0232 0001235  85.4482 274.6661 15.34219833 50223
STARLINK-31248          
1 58840U 24017Q   24344.81134101  .00009251  00000+0  35141-3 0  9998
2 58840  53.1575 169.1425 0000897  91.0276 269.0826 15.27527761 50359
STARLINK-31236          
1 58841U 24017R   24344.48948516 -.00000383  00000+0 -24181-6 0  9999
2 58841  53.1591 165.0183 0001050  98.8599 261.2522 15.34226401 50272
STARLINK-31228          
1 58842U 24017S   24344.87569071 -.00001385  00000+0 -30054-4 0  9995
2 58842  53.1603 163.1606 0001278 103.7001 256.4144 15.34230686 50335
STARLINK-31280          
1 58843U 24017T   24344.87136305  .00000061  00000+0  12991-4 0  9994
2 58843  53.1595 163.1343 0001037  81.3076 278.8043 15.34223826 50334
STARLINK-31269          
1 58844U 24017U   24345.01682534  .00000950  00000+0  85752-4 0  9994
2 58844  53.1603 212.9902 0001479  91.3968 268.7191 15.04924588 49644
STARLINK-31264          
1 58845U 24017V   24344.91393205  .00002431  00000+0  18908-3 0  9991
2 58845  53.1604 213.0632 0001366  88.0749 272.0397 15.04936081 49628
STARLINK-31273          
1 58846U 24017W   24344.80588674  .00000620  00000+0  29622-4 0  9990
2 58846  53.1601 163.4381 0000980  86.9402 273.1712 15.34222252 50322
STARLINK-31262          
1 58847U 24017X   24345.04364631  .00000229  00000+0  35346-4 0  9998
2 58847  53.1606 213.1509 0001414  80.3672 279.7478 15.04934285 49640
AAC-HSI-SAT3            
1 58848U 23174DH  24344.87666314  .00006864  00000+0  41217-3 0  9999
2 58848  97.4164  50.5862 0012845 125.6789 234.5639 15.11149769 60046
2024-018A               
1 58849U 24018A   24345.13373517  .00004055  00000+0  46170-3 0  9991
2 58849  58.6899   6.1505 0445930 172.9024 187.8608 14.35839352 45491
2024-018B               
1 58850U 24018B   24345.11561280  .00006126  00000+0  67053-3 0  9991
2 58850  58.6976   4.1653 0436584 173.4438 187.2569 14.38152669 45527
2024-018C               
1 58851U 24018C   24345.14108951  .00003987  00000+0  45249-3 0  9992
2 58851  58.6868   3.9504 0439751 173.5081 187.1911 14.37099461 45534
STARLINK-31238          
1 58853U 24019A   24344.59882587 -.00000583  00000+0 -12416-4 0  9999
2 58853  42.9962 294.6321 0002923 265.5356  94.5161 15.25900745 49533
STARLINK-31158          
1 58854U 24019B   24344.55875002  .00001133  00000+0  53161-4 0  9992
2 58854  42.9990 296.0258 0000939 288.3681  71.7068 15.25906698 49322
STARLINK-31237          
1 58855U 24019C   24344.29239280  .00002623  00000+0  11007-3 0  9993
2 58855  42.9976 297.5009 0000764 284.2995  75.7771 15.25906857 49474
STARLINK-31244          
1 58856U 24019D   24345.16369412  .00002319  00000+0  98428-4 0  9997
2 58856  43.0034 292.8184 0000690 266.7026  93.3747 15.25915375 49443
STARLINK-31216          
1 58857U 24019E   24345.25001157  .00209647  00000+0  47311-2 0  9993
2 58857  43.0085 286.1129 0015234 195.9315   7.7730 15.41587824 49532
STARLINK-31226          
1 58858U 24019F   24345.15464365  .00006763  00000+0  26809-3 0  9991
2 58858  42.9991 292.7580 0000647 305.7221  54.3569 15.25916196 49606
STARLINK-31197          
1 58859U 24019G   24345.17273770  .00000818  00000+0  41092-4 0  9999
2 58859  43.0036 292.8816 0001547 273.1790  86.8884 15.25926699 49600
STARLINK-31213          
1 58860U 24019H   24344.59720377 -.00001993  00000+0 -66372-4 0  9991
2 58860  43.0009 296.3226 0000999 333.4346  26.6453 15.25913579 49510
STARLINK-31199          
1 58861U 24019J   24345.16143031  .00001258  00000+0  57886-4 0  9994
2 58861  42.9970 292.8000 0000942 263.4517  96.6227 15.25926240 49602
STARLINK-31200          
1 58862U 24019K   24345.14560833 -.00002548  00000+0 -87585-4 0  9990
2 58862  43.0007 292.6942 0002170 264.1806  95.8797 15.25905763 49603
STARLINK-31149          
1 58863U 24019L   24344.87260694  .00009380  00000+0  36861-3 0  9991
2 58863  43.0003 294.9570 0000640 248.2269 111.8514 15.25852783 49551
STARLINK-31242          
1 58864U 24019M   24344.58136675  .00002709  00000+0  11334-3 0  9997
2 58864  43.0071 296.1820 0000768 317.5021  42.5771 15.25911369 49513
STARLINK-31223          
1 58865U 24019N   24345.14108532 -.00000704  00000+0 -17066-4 0  9996
2 58865  42.9998 292.6769 0000798 274.3042  85.7718 15.25915247 49440
STARLINK-31219          
1 58866U 24019P   24344.59946821  .00001680  00000+0  74032-4 0  9994
2 58866  43.0005 296.3388 0000655  31.0958 328.9932 15.25912133 49278
STARLINK-31198          
1 58867U 24019Q   24345.15690709  .00000280  00000+0  20543-4 0  9992
2 58867  43.0018 292.7508 0001585 269.1331  90.9338 15.25923495 49346
STARLINK-31196          
1 58868U 24019R   24345.15917228  .00001093  00000+0  51597-4 0  9997
2 58868  43.0005 292.7832 0001421 257.9157 102.1534 15.25922114 49366
STARLINK-31203          
1 58869U 24019S   24345.11062502 -.00000558  00000+0 -11495-4 0  9990
2 58869  43.0012 288.1150 0001624 235.3026 124.7672 15.25906084 49650
STARLINK-31201          
1 58870U 24019T   24345.12990926 -.00000024  00000+0  89146-5 0  9999
2 58870  43.0005 293.4448 0001546 250.2619 109.8065 15.25914951 49382
STARLINK-31214          
1 58871U 24019U   24344.85677847  .00001214  00000+0  56269-4 0  9993
2 58871  43.0036 294.8291 0001189 280.3742  79.6975 15.25896880 49533
STARLINK-31215          
1 58872U 24019V   24345.11182310  .00000344  00000+0  23000-4 0  9990
2 58872  42.9995 293.2920 0000608 314.7494  45.3307 15.25902041 49434
STARLINK-31177          
1 58873U 24019W   24345.13882078 -.00001785  00000+0 -58382-4 0  9994
2 58873  43.0016 292.6483 0001448 264.1652  95.9034 15.25916258 49607
STARLINK-30945          
1 58874U 24019X   24345.15238600 -.00001529  00000+0 -48615-4 0  9997
2 58874  43.0003 292.7291 0000736 309.5034  50.5751 15.25928470 49601
STARLINK-31212          
1 58875U 24019Y   24344.60171731  .00001189  00000+0  55317-4 0  9995
2 58875  43.0009 296.3580 0002280 259.3963 100.6631 15.25911335 49356
STARLINK-31306          
1 58876U 24020A   24345.09324769  .00003031  00000+0  11446-3 0  9995
2 58876  53.1601 273.7443 0001154  76.5578 283.5551 15.30185716 49640
STARLINK-31326          
1 58877U 24020B   24345.08387076  .00002291  00000+0  89506-4 0  9995
2 58877  53.1605 274.3880 0001179  96.4986 263.6149 15.30177947 49625
STARLINK-31300          
1 58878U 24020C   24345.09641762  .00000789  00000+0  38779-4 0  9998
2 58878  53.1608 273.7687 0001180  88.9385 271.1751 15.30182132 49645
STARLINK-31296          
1 58879U 24020D   24345.25001157  .00219182  00000+0  45007-2 0  9994
2 58879  53.1611 270.5528 0009397 145.5377 175.6692 15.44673074 49690
STARLINK-31328          
1 58880U 24020E   24345.16197974 -.00000513  00000+0 -40859-5 0  9990
2 58880  53.1611 266.2585 0001117 101.0250 259.0878 15.34213728 49751
STARLINK-31260          
1 58881U 24020F   24345.10381130 -.00003279  00000+0 -98734-4 0  9990
2 58881  53.1605 273.8115 0000971  85.7540 274.3572 15.30172551 49648
STARLINK-31323          
1 58882U 24020G   24345.10698345 -.00002817  00000+0 -83146-4 0  9998
2 58882  53.1586 273.8307 0000507  56.5550 303.5499 15.30164787 49489
STARLINK-31209          
1 58883U 24020H   24345.11013479 -.00001900  00000+0 -52048-4 0  9998
2 58883  53.1613 273.8544 0001345  93.7258 266.3896 15.30194101 49528
STARLINK-31315          
1 58884U 24020J   24345.14698991  .00007907  00000+0  27885-3 0  9991
2 58884  53.1597 248.3754 0000865  98.8531 261.2568 15.30195260 49837
STARLINK-31318          
1 58885U 24020K   24345.08069598  .00002620  00000+0  10059-3 0  9992
2 58885  53.1628 274.3651 0001586  98.7348 261.3832 15.30185305 49467
STARLINK-31320          
1 58886U 24020L   24345.11329834 -.00000576  00000+0 -73232-5 0  9993
2 58886  53.1617 273.8722 0001473  87.5815 272.5354 15.30193197 49639
STARLINK-31321          
1 58887U 24020M   24345.05114867  .00000255  00000+0  20735-4 0  9996
2 58887  53.1631 274.1932 0001354 104.7238 255.3913 15.30190224 49461
